NORAD_CAT_ID,OBJECT_NAME,OBJECT_TYPE,EPOCH,MEAN_MOTION,ECCENTRICITY,INCLINATION,RA_OF_ASC_NODE,ARG_OF_PERICENTER,MEAN_ANOMALY,BSTAR,MEAN_MOTION_DOT,MEAN_MOTION_DDOT,TLE_LINE0,TLE_LINE1,TLE_LINE2,SEMIMAJOR_AXIS,PERIOD,APOGEE,PERIGEE,DECAYED
52647.0,STARLINK-3846,PAYLOAD,2022-07-24 14:00:01,15.71078302,0.0003154999999999,53.2172,89.4689,2.1152,52.2227,-0.0091267,-0.01053575,0.0,0 STARLINK-3846,1 52647U 22052BB  22205.58334491 -.01053575  00000-0 -91267-2 0  9998,2 52647  53.2172  89.4689 0003155   2.1152  52.2227 15.71078302  1303,6733.951,91.657,357.941,353.691,0.0
52647.0,STARLINK-3846,PAYLOAD,2022-07-24 22:00:00,15.70323988,0.0003658,53.2172,87.8298,346.3849,153.8628,-0.009496,-0.01061233,0.0,0 STARLINK-3846,1 52647U 22052BB  22205.91667824 -.01061233  00000-0 -94960-2 0  9997,2 52647  53.2172  87.8298 0003658 346.3849 153.8628 15.70323988  1300,6736.107,91.701,360.436,355.5080000000001,0.0
52647.0,STARLINK-3846,PAYLOAD,2022-07-25 04:00:01,15.69759347,0.0001453,53.2173,86.6007,278.2722,195.8746,-0.0098066,-0.01068344,0.0,0 STARLINK-3846,1 52647U 22052BB  22206.16668981 -.01068344  00000-0 -98066-2 0  9991,2 52647  53.2173  86.6007 0001453 278.2722 195.8746 15.69759347 11612,6737.723000000001,91.734,360.567,358.6090000000001,0.0
52647.0,STARLINK-3846,PAYLOAD,2022-07-25 14:00:01,15.68796839,0.0001094,53.2174,84.5516,38.4078,270.9319,-0.0099814999999999,-0.01046846,0.0,0 STARLINK-3846,1 52647U 22052BB  22206.58334491 -.01046846  00000-0 -99815-2 0  9999,2 52647  53.2174  84.5516 0001094  38.4078 270.9319 15.68796839  1308,6740.478,91.79,363.081,361.606,0.0
52647.0,STARLINK-3846,PAYLOAD,2022-07-25 22:00:00,15.68041831,0.000137,53.2176,82.9183,43.2324,349.279,-0.010364,-0.01052936,0.0,0 STARLINK-3846,1 52647U 22052BB  22206.91667824 -.01052936  00000-0 -10364-1 0  9993,2 52647  53.2176  82.9183 0001370  43.2324 349.2790 15.68041831  1305,6742.642,91.834,365.43,363.583,0.0
52647.0,STARLINK-3846,PAYLOAD,2022-07-26 04:00:01,15.67471387,0.0001002999999999,53.2172,81.6933,71.3247,293.0341,-0.010582,-0.01050288,0.0,0 STARLINK-3846,1 52647U 22052BB  22207.16668981 -.01050288  00000-0 -10582-1 0  9996,2 52647  53.2172  81.6933 0001003  71.3247 293.0341 15.67471387 11760,6744.276999999999,91.868,366.819,365.466,0.0
52647.0,STARLINK-3846,PAYLOAD,2022-07-26 14:00:01,15.66521712,0.0001317,53.2173,79.6513,61.8958,134.2292,-0.011009,-0.01051081,0.0,0 STARLINK-3846,1 52647U 22052BB  22207.58334491 -.01051081  00000-0 -11009-1 0  9995,2 52647  53.2173  79.6513 0001317  61.8958 134.2292 15.66521712  1300,6747.003000000002,91.923,369.756,367.979,0.0
52647.0,STARLINK-3846,PAYLOAD,2022-07-26 20:00:01,15.65948098,0.0001547,53.2174,78.4299,45.1343,121.4049,-0.011189,-0.01044492,0.0,0 STARLINK-3846,1 52647U 22052BB  22207.83334491 -.01044492  00000-0 -11189-1 0  9990,2 52647  53.2174  78.4299 0001547  45.1343 121.4049 15.65948098 11877,6748.65,91.957,371.559,369.471,0.0
52647.0,STARLINK-3846,PAYLOAD,2022-07-26 22:00:00,15.6576191,0.0001434,53.2173,78.0235,46.8346,229.7262,-0.011343,-0.01050222,0.0,0 STARLINK-3846,1 52647U 22052BB  22207.91667824 -.01050222  00000-0 -11343-1 0  9998,2 52647  53.2173  78.0235 0001434  46.8346 229.7262 15.65761910  1300,6749.185,91.968,372.018,370.083,0.0
52647.0,STARLINK-3846,PAYLOAD,2022-07-27 12:00:00,15.64430952,0.0001060999999999,53.2174,75.1739,65.2528,259.8784,-0.011925,-0.01046789,0.0,0 STARLINK-3846,1 52647U 22052BB  22208.50001157 -.01046789  00000-0 -11925-1 0  9994,2 52647  53.2174  75.1739 0001061  65.2528 259.8784 15.64430952 11976,6753.013000000001,92.046,375.594,374.161,0.0
52647.0,STARLINK-3846,PAYLOAD,2022-07-27 14:00:01,15.64242125,0.0001199,53.2174,74.7674,59.3974,15.3008,-0.012037,-0.0104853,0.0,0 STARLINK-3846,1 52647U 22052BB  22208.58334491 -.01048530  00000-0 -12037-1 0  9993,2 52647  53.2174  74.7674 0001199  59.3974  15.3008 15.64242125  1303,6753.556,92.057,376.231,374.612,0.0
52647.0,STARLINK-3846,PAYLOAD,2022-07-27 22:00:00,15.63483087,0.0001413,53.2175,73.1452,56.2482,96.1475,-0.012403,-0.01048352,0.0,0 STARLINK-3846,1 52647U 22052BB  22208.91667824 -.01048352  00000-0 -12403-1 0  9998,2 52647  53.2175  73.1452 0001413  56.2482  96.1475 15.63483087  1308,6755.7419999999975,92.102,378.561,376.652,0.0
52647.0,STARLINK-3846,PAYLOAD,2022-07-28 04:00:00,15.62913584,0.0001204,53.2173,71.9279,66.1495,53.9218,-0.012687,-0.01064663,0.0,0 STARLINK-3846,1 52647U 22052BB  22209.16667824 -.01064663  00000-0 -12687-1 0  9993,2 52647  53.2173  71.9279 0001204  66.1495  53.9218 15.62913584 12083,6757.3830000000025,92.136,380.062,378.434,0.0
52647.0,STARLINK-3846,PAYLOAD,2022-07-28 14:00:01,15.61962933,0.0001220999999999,53.2176,69.9002,57.8567,247.2004,-0.013138,-0.0106232,0.0,0 STARLINK-3846,1 52647U 22052BB  22209.58334491 -.01062320  00000-0 -13138-1 0  9990,2 52647  53.2176  69.9002 0001221  57.8567 247.2004 15.61962933  1308,6760.124,92.192,382.815,381.164,0.0
52647.0,STARLINK-3846,PAYLOAD,2022-07-28 22:00:00,15.61206531,0.0001322,53.2175,68.2836,47.7504,332.2653,-0.0136009999999999,-0.01067325,0.0,0 STARLINK-3846,1 52647U 22052BB  22209.91667824 -.01067325  00000-0 -13601-1 0  9991,2 52647  53.2175  68.2836 0001322  47.7504 332.2653 15.61206531 12194,6762.308000000001,92.236,385.067,383.279,0.0
52647.0,STARLINK-3846,PAYLOAD,2022-07-29 14:00:01,15.59685216,0.0001358,53.2175,65.0496,62.2791,104.9222,-0.01435,-0.01062288,0.0,0 STARLINK-3846,1 52647U 22052BB  22210.58334491 -.01062288  00000-0 -14350-1 0  9992,2 52647  53.2175  65.0496 0001358  62.2791 104.9222 15.59685216  1305,6766.704000000002,92.326,389.48800000000006,387.65,0.0
52647.0,STARLINK-3846,PAYLOAD,2022-07-29 20:00:01,15.591141199999996,0.0001395999999999,53.2173,63.8409,56.2902,75.1641,-0.0146449999999999,-0.01060809,0.0,0 STARLINK-3846,1 52647U 22052BB  22210.83334491 -.01060809  00000-0 -14645-1 0  9994,2 52647  53.2173  63.8409 0001396  56.2902  75.1641 15.59114120 12343,6768.357,92.36,391.167,389.277,0.0
52647.0,STARLINK-3846,PAYLOAD,2022-07-29 22:00:00,15.58925603,0.0001358,53.2174,63.4385,61.87300000000001,177.5504,-0.014777,-0.01062509,0.0,0 STARLINK-3846,1 52647U 22052BB  22210.91667824 -.01062509  00000-0 -14777-1 0  9997,2 52647  53.2174  63.4385 0001358  61.8730 177.5504 15.58925603  1306,6768.901999999999,92.371,391.687,389.848,0.0
52647.0,STARLINK-3846,PAYLOAD,2022-07-30 12:00:00,15.57595075,0.0001192,53.2174,60.6176,70.5621,203.0574,-0.01551,-0.01060407,0.0,0 STARLINK-3846,1 52647U 22052BB  22211.50001157 -.01060407  00000-0 -15510-1 0  9995,2 52647  53.2174  60.6176 0001192  70.5621 203.0574 15.57595075 12449,6772.757,92.45,395.429,393.814,0.0
52647.0,STARLINK-3846,PAYLOAD,2022-07-30 14:00:01,15.57405281,0.0001144,53.2176,60.2156,62.9205,318.2123,-0.015609,-0.01059618,0.0,0 STARLINK-3846,1 52647U 22052BB  22211.58334491 -.01059618  00000-0 -15609-1 0  9994,2 52647  53.2176  60.2156 0001144  62.9205 318.2123 15.57405281  1306,6773.307,92.461,395.947,394.397,0.0
52647.0,STARLINK-3846,PAYLOAD,2022-07-30 22:00:00,15.56648302,0.0001465999999999,53.2176,58.6099,47.4994,43.1164,-0.016125,-0.01063627,0.0,0 STARLINK-3846,1 52647U 22052BB  22211.91667824 -.01063627  00000-0 -16125-1 0  9999,2 52647  53.2176  58.6099 0001466  47.4994  43.1164 15.56648302  1304,6775.502,92.506,398.361,396.374,0.0
52647.0,STARLINK-3846,PAYLOAD,2022-07-31 04:00:00,15.56077235,0.0001187,53.2171,57.4045,58.6916,353.4402,-0.016432,-0.0106112,0.0,0 STARLINK-3846,1 52647U 22052BB  22212.16667824 -.01061120  00000-0 -16432-1 0  9994,2 52647  53.2171  57.4045 0001187  58.6916 353.4402 15.56077235 12557,6777.16,92.54,399.829,398.221,0.0
52647.0,STARLINK-3846,PAYLOAD,2022-07-31 14:00:01,15.55127603,0.0001391,53.2176,55.398,59.4717,167.3775,-0.016994,-0.0105954,0.0,0 STARLINK-3846,1 52647U 22052BB  22212.58334491 -.01059540  00000-0 -16994-1 0  9997,2 52647  53.2176  55.3980 0001391  59.4717 167.3775 15.55127603  1302,6779.919,92.597,402.727,400.841,0.0
52647.0,STARLINK-3846,PAYLOAD,2022-07-31 20:00:01,15.54557001,0.000158,53.2175,54.1978,49.0621,137.9327,-0.017349,-0.01059182,0.0,0 STARLINK-3846,1 52647U 22052BB  22212.83334491 -.01059182  00000-0 -17349-1 0  9992,2 52647  53.2175  54.1978 0001580  49.0621 137.9327 15.54557001 12658,6781.578,92.631,404.514,402.371,0.0
52647.0,STARLINK-3846,PAYLOAD,2022-07-31 22:00:00,15.54369256,0.0001418,53.2175,53.7978,49.6454,243.9494,-0.017526,-0.01062252,0.0,0 STARLINK-3846,1 52647U 22052BB  22212.91667824 -.01062252  00000-0 -17526-1 0  9999,2 52647  53.2175  53.7978 0001418  49.6454 243.9494 15.54369256  1309,6782.124,92.642,404.95,403.027,0.0
52647.0,STARLINK-3846,PAYLOAD,2022-08-01 12:00:00,15.53037363,0.0001234,53.2174,50.996,57.0354,261.1731,-0.018321,-0.01057892,0.0,0 STARLINK-3846,1 52647U 22052BB  22213.50001157 -.01057892  00000-0 -18321-1 0  9994,2 52647  53.2174  50.9960 0001234  57.0354 261.1731 15.53037363 12753,6786.001,92.722,408.703,407.028,0.0
52647.0,STARLINK-3846,PAYLOAD,2022-08-01 14:00:01,15.52848183,0.0001349,53.2174,50.5968,50.2889,14.0639,-0.0184569999999999,-0.01058405,0.0,0 STARLINK-3846,1 52647U 22052BB  22213.58334491 -.01058405  00000-0 -18457-1 0  9993,2 52647  53.2174  50.5968 0001349  50.2889  14.0639 15.52848183  1302,6786.552,92.733,409.332,407.501,0.0
52647.0,STARLINK-3846,PAYLOAD,2022-08-01 22:00:00,15.52089093,0.0001474,53.2175,49.0021,52.1839,76.1765,-0.018981,-0.01058849,0.0,0 STARLINK-3846,1 52647U 22052BB  22213.91667824 -.01058849  00000-0 -18981-1 0  9993,2 52647  53.2175  49.0021 0001474  52.1839  76.1765 15.52089093  1307,6788.764,92.778,411.63,409.629,0.0
52647.0,STARLINK-3846,PAYLOAD,2022-08-02 04:00:00,15.51520192,0.0001333,53.2172,47.8048,55.6824,30.0863,-0.0194009999999999,-0.01060088,0.0,0 STARLINK-3846,1 52647U 22052BB  22214.16667824 -.01060088  00000-0 -19401-1 0  9997,2 52647  53.2172  47.8048 0001333  55.6824  30.0863 15.51520192 12865,6790.424,92.812,413.194,411.384,0.0
